{
    "links": {
        "self": "http://www.neowsapp.com/rest/v1/neo/3380959?api_key=iIulBulltgU6a56xZRHN4H3l9WmuAYTsLGpBGhQ2"
    },
    "id": "3380959",
    "neo_reference_id": "3380959",
    "name": "(2007 PQ)",
    "designation": "2007 PQ",
    "nasa_jpl_url": "http://ssd.jpl.nasa.gov/sbdb.cgi?sstr=3380959",
    "absolute_magnitude_h": 20.6,
    "estimated_diameter": {
        "kilometers": {
            "estimated_diameter_min": 0.2016299194,
            "estimated_diameter_max": 0.4508582062
        },
        "meters": {
            "estimated_diameter_min": 201.6299194428,
            "estimated_diameter_max": 450.8582061718
        },
        "miles": {
            "estimated_diameter_min": 0.1252869847,
            "estimated_diameter_max": 0.2801502144
        },
        "feet": {
            "estimated_diameter_min": 661.5155049046,
            "estimated_diameter_max": 1479.1936371367
        }
    },
    "is_potentially_hazardous_asteroid": false,
    "close_approach_data": [
        {
            "close_approach_date": "1938-07-19",
            "close_approach_date_full": "1938-Jul-19 13:12",
            "epoch_date_close_approach": -992602080000,
            "relative_velocity": {
                "kilometers_per_second": "10.0927131212",
                "kilometers_per_hour": "36333.7672362761",
                "miles_per_hour": "22576.389980785"
            },
            "miss_distance": {
                "astronomical": "0.4162947354",
                "lunar": "161.9386520706",
                "kilometers": "62276805.708053598",
                "miles": "38697012.6626637324"
            },
            "orbiting_body": "Earth"
        },
        {
            "close_approach_date": "1963-08-20",
            "close_approach_date_full": "1963-Aug-20 00:05",
            "epoch_date_close_approach": -200966100000,
            "relative_velocity": {
                "kilometers_per_second": "12.6078132169",
                "kilometers_per_hour": "45388.1275808429",
                "miles_per_hour": "28202.4173848854"
            },
            "miss_distance": {
                "astronomical": "0.3953535205",
                "lunar": "153.7925194745",
                "kilometers": "59144044.563801335",
                "miles": "36750405.153015023"
            },
            "orbiting_body": "Earth"
        },
        {
            "close_approach_date": "1985-08-14",
            "close_approach_date_full": "1985-Aug-14 11:51",
            "epoch_date_close_approach": 492868260000,
            "relative_velocity": {
                "kilometers_per_second": "9.5866168087",
                "kilometers_per_hour": "34511.8205112065",
                "miles_per_hour": "21444.3031393105"
            },
            "miss_distance": {
                "astronomical": "0.2796331926",
                "lunar": "108.7773119214",
                "kilometers": "41832529.994259762",
                "miles": "25993528.8024862356"
            },
            "orbiting_body": "Earth"
        },
        {
            "close_approach_date": "2007-08-10",
            "close_approach_date_full": "2007-Aug-10 21:17",
            "epoch_date_close_approach": 1186780620000,
            "relative_velocity": {
                "kilometers_per_second": "7.1550111595",
                "kilometers_per_hour": "25758.0401742422",
                "miles_per_hour": "16005.0444627118"
            },
            "miss_distance": {
                "astronomical": "0.1890213194",
                "lunar": "73.5292932466",
                "kilometers": "28277186.766829678",
                "miles": "17570629.0960104364"
            },
            "orbiting_body": "Earth"
        },
        {
            "close_approach_date": "2029-08-07",
            "close_approach_date_full": "2029-Aug-07 23:51",
            "epoch_date_close_approach": 1880841060000,
            "relative_velocity": {
                "kilometers_per_second": "6.2474481633",
                "kilometers_per_hour": "22490.813387901",
                "miles_per_hour": "13974.9167964988"
            },
            "miss_distance": {
                "astronomical": "0.1732162381",
                "lunar": "67.3811166209",
                "kilometers": "25912780.269172847",
                "miles": "16101455.0248734086"
            },
            "orbiting_body": "Earth"
        }
    ],
    "orbital_data": {
        "orbit_id": "17",
        "orbit_determination_date": "2017-04-06 09:06:14",
        "first_observation_date": "2007-08-04",
        "last_observation_date": "2007-10-10",
        "data_arc_in_days": 67,
        "observations_used": 50,
        "orbit_uncertainty": "6",
        "minimum_orbit_intersection": ".168791",
        "jupiter_tisserand_invariant": "3.555",
        "epoch_osculation": "2459000.5",
        "eccentricity": ".4582957193857601",
        "semi_major_axis": "2.145051690030086",
        "inclination": "8.389038020461104",
        "ascending_node_longitude": "341.0785350988131",
        "orbital_period": "1147.506276973623",
        "perihelion_distance": "1.161983682628107",
        "perihelion_argument": "324.1538137212236",
        "aphelion_distance": "3.128119697432064",
        "perihelion_time": "2458905.163377733869",
        "mean_anomaly": "29.90936494598012",
        "mean_motion": ".3137237740864011",
        "equinox": "J2000",
        "orbit_class": {
            "orbit_class_type": "AMO",
            "orbit_class_description": "Near-Earth asteroid orbits similar to that of 1221 Amor",
            "orbit_class_range": "1.017 AU < q (perihelion) < 1.3 AU"
        }
    },
    "is_sentry_object": false
}